{
    "links": {
        "self": "http://www.neowsapp.com/rest/v1/neo/3759636?api_key=iIulBulltgU6a56xZRHN4H3l9WmuAYTsLGpBGhQ2"
    },
    "id": "3759636",
    "neo_reference_id": "3759636",
    "name": "(2016 RJ40)",
    "designation": "2016 RJ40",
    "nasa_jpl_url": "http://ssd.jpl.nasa.gov/sbdb.cgi?sstr=3759636",
    "absolute_magnitude_h": 25.2,
    "estimated_diameter": {
        "kilometers": {
            "estimated_diameter_min": 0.0242412481,
            "estimated_diameter_max": 0.0542050786
        },
        "meters": {
            "estimated_diameter_min": 24.2412481101,
            "estimated_diameter_max": 54.2050786336
        },
        "miles": {
            "estimated_diameter_min": 0.0150628086,
            "estimated_diameter_max": 0.0336814639
        },
        "feet": {
            "estimated_diameter_min": 79.5316564495,
            "estimated_diameter_max": 177.8381901842
        }
    },
    "is_potentially_hazardous_asteroid": false,
    "close_approach_data": [
        {
            "close_approach_date": "2016-08-31",
            "close_approach_date_full": "2016-Aug-31 19:38",
            "epoch_date_close_approach": 1472672280000,
            "relative_velocity": {
                "kilometers_per_second": "7.2042456405",
                "kilometers_per_hour": "25935.2843056744",
                "miles_per_hour": "16115.1770731564"
            },
            "miss_distance": {
                "astronomical": "0.0369146269",
                "lunar": "14.3597898641",
                "kilometers": "5522349.556084703",
                "miles": "3431428.8966787814"
            },
            "orbiting_body": "Earth"
        }
    ],
    "orbital_data": {
        "orbit_id": "3",
        "orbit_determination_date": "2017-04-06 08:23:50",
        "first_observation_date": "2016-09-11",
        "last_observation_date": "2016-09-25",
        "data_arc_in_days": 14,
        "observations_used": 23,
        "orbit_uncertainty": "8",
        "minimum_orbit_intersection": ".0205009",
        "jupiter_tisserand_invariant": "3.577",
        "epoch_osculation": "2457644.5",
        "eccentricity": ".5070737039020995",
        "semi_major_axis": "2.093410323082979",
        "inclination": "3.429612267499901",
        "ascending_node_longitude": "321.4890171130095",
        "orbital_period": "1106.317975880976",
        "perihelion_distance": "1.031896996770402",
        "perihelion_argument": "6.836864795190849",
        "aphelion_distance": "3.154923649395555",
        "perihelion_time": "2457624.275785229899",
        "mean_anomaly": "6.581034997138707",
        "mean_motion": ".3254037336899701",
        "equinox": "J2000",
        "orbit_class": {
            "orbit_class_type": "AMO",
            "orbit_class_description": "Near-Earth asteroid orbits similar to that of 1221 Amor",
            "orbit_class_range": "1.017 AU < q (perihelion) < 1.3 AU"
        }
    },
    "is_sentry_object": false
}